start=new Date('2022-09-07T00:00:00.000Z').valueOf();
sats=[{"CLASSIFICATION_TYPE":"U","FILE":"3561102","RCS_SIZE":"LARGE","TLE_LINE1":"1 52544U 22051M   22249.91667824 -.00005679  00000-0 -33910-3 0  9990","PERIAPSIS":"538.388","OBJECT_TYPE":"PAYLOAD","COUNTRY_CODE":"US","REF_FRAME":"TEME","DECAY_DATE":null,"OBJECT_ID":"2022-051M","MEAN_MOTION_DOT":"-0.00005679","BSTAR":"-0.00033910000000","GP_ID":"211891417","EPHEMERIS_TYPE":"0","MEAN_ANOMALY":"100.8186","SEMIMAJOR_AXIS":"6917.919","ELEMENT_SET_NO":"999","TIME_SYSTEM":"UTC","INCLINATION":"53.2164","MEAN_ELEMENT_THEORY":"SGP4","NORAD_CAT_ID":"52544","OBJECT_NAME":"STARLINK-3944","ECCENTRICITY":"0.00020170","MEAN_MOTION":"15.08827427","RA_OF_ASC_NODE":"119.2586","MEAN_MOTION_DDOT":"0.0000000000000","SITE":"AFWTR","CENTER_NAME":"EARTH","PERIOD":"95.438","ARG_OF_PERICENTER":"60.4110","REV_AT_EPOCH":"1824","TLE_LINE2":"2 52544  53.2164 119.2586 0002017  60.4110 100.8186 15.08827427 18240","EPOCH":"2022-09-06T22:00:00.999936","LAUNCH_DATE":"2022-05-13","APOAPSIS":"541.179"},{"OBJECT_NAME":"STARLINK-3939","ECCENTRICITY":"0.00018550","MEAN_MOTION":"15.08819790","ELEMENT_SET_NO":"999","SEMIMAJOR_AXIS":"6917.942","TIME_SYSTEM":"UTC","INCLINATION":"53.2176","NORAD_CAT_ID":"52545","MEAN_ELEMENT_THEORY":"SGP4","TLE_LINE2":"2 52545  53.2176 114.2553 0001855  58.5737 230.1795 15.08819790 18310","EPOCH":"2022-09-06T22:00:00.999936","LAUNCH_DATE":"2022-05-13","APOAPSIS":"541.090","RA_OF_ASC_NODE":"114.2553","MEAN_MOTION_DDOT":"0.0000000000000","SITE":"AFWTR","PERIOD":"95.439","CENTER_NAME":"EARTH","REV_AT_EPOCH":"1831","ARG_OF_PERICENTER":"58.5737","TLE_LINE1":"1 52545U 22051N   22249.91667824 -.00001706  00000-0 -89177-4 0  9995","PERIAPSIS":"538.524","OBJECT_TYPE":"PAYLOAD","COUNTRY_CODE":"US","CLASSIFICATION_TYPE":"U","FILE":"3561102","RCS_SIZE":"LARGE","BSTAR":"-0.00008917700000","GP_ID":"211891688","EPHEMERIS_TYPE":"0","MEAN_ANOMALY":"230.1795","REF_FRAME":"TEME","DECAY_DATE":null,"OBJECT_ID":"2022-051N","MEAN_MOTION_DOT":"-0.00001706"},{"COUNTRY_CODE":"US","TLE_LINE1":"1 52546U 22051P   22249.91667824 -.00005382  00000-0 -32048-3 0  9994","PERIAPSIS":"538.490","OBJECT_TYPE":"PAYLOAD","CLASSIFICATION_TYPE":"U","FILE":"3561419","RCS_SIZE":"LARGE","MEAN_ANOMALY":"299.8987","BSTAR":"-0.00032048000000","GP_ID":"211923939","EPHEMERIS_TYPE":"0","DECAY_DATE":null,"OBJECT_ID":"2022-051P","MEAN_MOTION_DOT":"-0.00005382","REF_FRAME":"TEME","ECCENTRICITY":"0.00018960","MEAN_MOTION":"15.08821598","OBJECT_NAME":"STARLINK-3948","INCLINATION":"53.2190","MEAN_ELEMENT_THEORY":"SGP4","NORAD_CAT_ID":"52546","SEMIMAJOR_AXIS":"6917.937","ELEMENT_SET_NO":"999","TIME_SYSTEM":"UTC","APOAPSIS":"541.113","TLE_LINE2":"2 52546  53.2190 114.2378 0001896  63.6241 299.8987 15.08821598  1309","EPOCH":"2022-09-06T22:00:00.999936","LAUNCH_DATE":"2022-05-13","MEAN_MOTION_DDOT":"0.0000000000000","SITE":"AFWTR","CENTER_NAME":"EARTH","PERIOD":"95.439","REV_AT_EPOCH":"130","ARG_OF_PERICENTER":"63.6241","RA_OF_ASC_NODE":"114.2378"},{"CLASSIFICATION_TYPE":"U","FILE":"3561419","RCS_SIZE":"LARGE","COUNTRY_CODE":"US","TLE_LINE1":"1 52547U 22051Q   22249.91667824 -.00006777  00000-0 -40822-3 0  9993","PERIAPSIS":"538.336","OBJECT_TYPE":"PAYLOAD","DECAY_DATE":null,"OBJECT_ID":"2022-051Q","MEAN_MOTION_DOT":"-0.00006777","REF_FRAME":"TEME","MEAN_ANOMALY":"81.2925","BSTAR":"-0.00040822000000","GP_ID":"211924454","EPHEMERIS_TYPE":"0","INCLINATION":"53.2152","NORAD_CAT_ID":"52547","MEAN_ELEMENT_THEORY":"SGP4","ELEMENT_SET_NO":"999","SEMIMAJOR_AXIS":"6917.927","TIME_SYSTEM":"UTC","ECCENTRICITY":"0.00021050","MEAN_MOTION":"15.08824729","OBJECT_NAME":"STARLINK-3869","MEAN_MOTION_DDOT":"0.0000000000000","SITE":"AFWTR","PERIOD":"95.439","CENTER_NAME":"EARTH","REV_AT_EPOCH":"130","ARG_OF_PERICENTER":"59.9504","RA_OF_ASC_NODE":"119.2549","APOAPSIS":"541.248","TLE_LINE2":"2 52547  53.2152 119.2549 0002105  59.9504  81.2925 15.08824729  1301","LAUNCH_DATE":"2022-05-13","EPOCH":"2022-09-06T22:00:00.999936"},{"INCLINATION":"53.2178","MEAN_ELEMENT_THEORY":"SGP4","NORAD_CAT_ID":"52548","ELEMENT_SET_NO":"999","SEMIMAJOR_AXIS":"6917.957","TIME_SYSTEM":"UTC","ECCENTRICITY":"0.00015920","MEAN_MOTION":"15.08815053","OBJECT_NAME":"STARLINK-3931","MEAN_MOTION_DDOT":"0.0000000000000","PERIOD":"95.439","SITE":"AFWTR","CENTER_NAME":"EARTH","REV_AT_EPOCH":"1831","ARG_OF_PERICENTER":"67.1790","RA_OF_ASC_NODE":"114.2341","APOAPSIS":"540.923","TLE_LINE2":"2 52548  53.2178 114.2341 0001592  67.1790  21.5663 15.08815053 18317","EPOCH":"2022-09-06T22:00:00.999936","LAUNCH_DATE":"2022-05-13","CLASSIFICATION_TYPE":"U","FILE":"3561102","RCS_SIZE":"LARGE","COUNTRY_CODE":"US","TLE_LINE1":"1 52548U 22051R   22249.91667824 -.00004841  00000-0 -28647-3 0  9995","PERIAPSIS":"538.720","OBJECT_TYPE":"PAYLOAD","DECAY_DATE":null,"OBJECT_ID":"2022-051R","MEAN_MOTION_DOT":"-0.00004841","REF_FRAME":"TEME","MEAN_ANOMALY":"21.5663","BSTAR":"-0.00028647000000","GP_ID":"211891414","EPHEMERIS_TYPE":"0"},{"MEAN_MOTION_DDOT":"0.0000000000000","SITE":"AFWTR","CENTER_NAME":"EARTH","PERIOD":"95.438","ARG_OF_PERICENTER":"58.5178","REV_AT_EPOCH":"1831","RA_OF_ASC_NODE":"114.2348","APOAPSIS":"541.102","TLE_LINE2":"2 52549  53.2175 114.2348 0001902  58.5178 290.2477 15.08826731 18314","EPOCH":"2022-09-06T22:00:00.999936","LAUNCH_DATE":"2022-05-13","INCLINATION":"53.2175","NORAD_CAT_ID":"52549","MEAN_ELEMENT_THEORY":"SGP4","ELEMENT_SET_NO":"999","SEMIMAJOR_AXIS":"6917.921","TIME_SYSTEM":"UTC","ECCENTRICITY":"0.00019020","MEAN_MOTION":"15.08826731","OBJECT_NAME":"STARLINK-3935","DECAY_DATE":null,"OBJECT_ID":"2022-051S","MEAN_MOTION_DOT":"-0.00004457","REF_FRAME":"TEME","MEAN_ANOMALY":"290.2477","BSTAR":"-0.00026217000000","GP_ID":"211891685","EPHEMERIS_TYPE":"0","CLASSIFICATION_TYPE":"U","FILE":"3561102","RCS_SIZE":"LARGE","COUNTRY_CODE":"US","TLE_LINE1":"1 52549U 22051S   22249.91667824 -.00004457  00000-0 -26217-3 0  9990","PERIAPSIS":"538.470","OBJECT_TYPE":"PAYLOAD"},{"OBJECT_NAME":"STARLINK-3965","MEAN_MOTION":"15.08808210","ECCENTRICITY":"0.00018540","TIME_SYSTEM":"UTC","ELEMENT_SET_NO":"999","SEMIMAJOR_AXIS":"6917.978","NORAD_CAT_ID":"52550","MEAN_ELEMENT_THEORY":"SGP4","INCLINATION":"53.2179","LAUNCH_DATE":"2022-05-13","EPOCH":"2022-09-06T22:00:00.999936","TLE_LINE2":"2 52550  53.2179 114.2344 0001854  53.7044 355.0325 15.08808210  1306","APOAPSIS":"541.125","RA_OF_ASC_NODE":"114.2344","ARG_OF_PERICENTER":"53.7044","REV_AT_EPOCH":"130","CENTER_NAME":"EARTH","SITE":"AFWTR","PERIOD":"95.440","MEAN_MOTION_DDOT":"0.0000000000000","OBJECT_TYPE":"PAYLOAD","PERIAPSIS":"538.560","TLE_LINE1":"1 52550U 22051T   22249.91667824 -.00005891  00000-0 -35265-3 0  9998","COUNTRY_CODE":"US","RCS_SIZE":"LARGE","FILE":"3561419","CLASSIFICATION_TYPE":"U","EPHEMERIS_TYPE":"0","GP_ID":"211923527","BSTAR":"-0.00035265000000","MEAN_ANOMALY":"355.0325","REF_FRAME":"TEME","MEAN_MOTION_DOT":"-0.00005891","OBJECT_ID":"2022-051T","DECAY_DATE":null},{"EPHEMERIS_TYPE":"0","GP_ID":"211924249","BSTAR":"-0.00035022000000","MEAN_ANOMALY":"309.6410","REF_FRAME":"TEME","MEAN_MOTION_DOT":"-0.00005854","OBJECT_ID":"2022-051U","DECAY_DATE":null,"OBJECT_TYPE":"PAYLOAD","PERIAPSIS":"538.578","TLE_LINE1":"1 52551U 22051U   22249.91667824 -.00005854  00000-0 -35022-3 0  9999","COUNTRY_CODE":"US","RCS_SIZE":"LARGE","FILE":"3561419","CLASSIFICATION_TYPE":"U","LAUNCH_DATE":"2022-05-13","EPOCH":"2022-09-06T22:00:00.999936","TLE_LINE2":"2 52551  53.2185 114.2358 0001782  59.0966 309.6410 15.08818490  1302","APOAPSIS":"541.044","RA_OF_ASC_NODE":"114.2358","ARG_OF_PERICENTER":"59.0966","REV_AT_EPOCH":"130","SITE":"AFWTR","CENTER_NAME":"EARTH","PERIOD":"95.439","MEAN_MOTION_DDOT":"0.0000000000000","OBJECT_NAME":"STARLINK-3969","MEAN_MOTION":"15.08818490","ECCENTRICITY":"0.00017820","TIME_SYSTEM":"UTC","ELEMENT_SET_NO":"999","SEMIMAJOR_AXIS":"6917.946","MEAN_ELEMENT_THEORY":"SGP4","NORAD_CAT_ID":"52551","INCLINATION":"53.2185"},{"ECCENTRICITY":"0.00017150","MEAN_MOTION":"15.08826654","OBJECT_NAME":"STARLINK-3966","INCLINATION":"53.2179","MEAN_ELEMENT_THEORY":"SGP4","NORAD_CAT_ID":"52552","ELEMENT_SET_NO":"999","SEMIMAJOR_AXIS":"6917.921","TIME_SYSTEM":"UTC","APOAPSIS":"540.973","TLE_LINE2":"2 52552  53.2179 114.2339 0001715  53.3805  55.4189 15.08826654  1300","LAUNCH_DATE":"2022-05-13","EPOCH":"2022-09-06T22:00:00.999936","MEAN_MOTION_DDOT":"0.0000000000000","SITE":"AFWTR","PERIOD":"95.438","CENTER_NAME":"EARTH","REV_AT_EPOCH":"130","ARG_OF_PERICENTER":"53.3805","RA_OF_ASC_NODE":"114.2339","COUNTRY_CODE":"US","TLE_LINE1":"1 52552U 22051V   22249.91667824 -.00004390  00000-0 -25795-3 0  9990","PERIAPSIS":"538.600","OBJECT_TYPE":"PAYLOAD","CLASSIFICATION_TYPE":"U","FILE":"3561419","RCS_SIZE":"LARGE","MEAN_ANOMALY":"55.4189","BSTAR":"-0.00025795000000","GP_ID":"211923786","EPHEMERIS_TYPE":"0","DECAY_DATE":null,"OBJECT_ID":"2022-051V","MEAN_MOTION_DOT":"-0.00004390","REF_FRAME":"TEME"},{"RCS_SIZE":"LARGE","CLASSIFICATION_TYPE":"U","FILE":"3561102","OBJECT_TYPE":"PAYLOAD","TLE_LINE1":"1 52553U 22051W   22249.91667824 -.00007111  00000-0 -42934-3 0  9999","PERIAPSIS":"538.530","COUNTRY_CODE":"US","REF_FRAME":"TEME","OBJECT_ID":"2022-051W","MEAN_MOTION_DOT":"-0.00007111","DECAY_DATE":null,"EPHEMERIS_TYPE":"0","BSTAR":"-0.00042934000000","GP_ID":"211891684","MEAN_ANOMALY":"335.3471","TIME_SYSTEM":"UTC","SEMIMAJOR_AXIS":"6917.947","ELEMENT_SET_NO":"999","INCLINATION":"53.2180","MEAN_ELEMENT_THEORY":"SGP4","NORAD_CAT_ID":"52553","OBJECT_NAME":"STARLINK-3858","ECCENTRICITY":"0.00018540","MEAN_MOTION":"15.08818135","RA_OF_ASC_NODE":"114.2354","PERIOD":"95.439","SITE":"AFWTR","CENTER_NAME":"EARTH","REV_AT_EPOCH":"1831","ARG_OF_PERICENTER":"53.3857","MEAN_MOTION_DDOT":"0.0000000000000","LAUNCH_DATE":"2022-05-13","EPOCH":"2022-09-06T22:00:00.999936","TLE_LINE2":"2 52553  53.2180 114.2354 0001854  53.3857 335.3471 15.08818135 18319","APOAPSIS":"541.095"}];
